OBJECT_NAME,OBJECT_ID,EPOCH,MEAN_MOTION,ECCENTRICITY,INCLINATION,RA_OF_ASC_NODE,ARG_OF_PERICENTER,MEAN_ANOMALY,EPHEMERIS_TYPE,CLASSIFICATION_TYPE,NORAD_CAT_ID,ELEMENT_SET_NO,REV_AT_EPOCH,BSTAR,MEAN_MOTION_DOT,MEAN_MOTION_DDOT
STARLINK-37992,2026-145E,2026-07-20T22:00:01.999584,15.70471877,.00016652,97.2843,49.0355,81.6835,56.0216,0,U,69681,999,534,-.19871314E-1,-.212531E-1,0
STARLINK-37997,2026-145F,2026-07-20T19:50:46.896288,15.74458524,.00047707,97.2850,48.9465,135.6809,224.4839,0,U,69682,999,531,-.18391961E-2,-.258301E-2,0
STARLINK-37990,2026-145G,2026-07-20T22:00:01.999584,15.67747228,.00016365,97.2843,49.0347,77.9389,52.3235,0,U,69683,999,534,-.24927215E-1,-.2395739E-1,0
STARLINK-37951,2026-145H,2026-07-20T21:21:01.782144,15.75171169,.00014675,97.2854,49.0140,92.5334,267.6099,0,U,69684,999,407,.14388508E-2,.219924E-2,0
STARLINK-37957,2026-145J,2026-07-20T07:36:16.189056,15.74953398,.00036179,97.2851,48.4157,45.0296,315.1262,0,U,69685,999,398,.13284963E-3,.19535E-3,0
STARLINK-37968,2026-145K,2026-07-20T22:00:01.999584,15.62477030,.00016958,97.2849,49.0411,84.9542,55.9053,0,U,69686,999,534,-.29982209E-1,-.2340883E-1,0
STARLINK-37977,2026-145L,2026-07-19T13:08:46.737888,15.75204737,.00012442,97.2836,47.6256,87.1386,273.0021,0,U,69687,999,386,.64425397E-3,.97126E-3,0
STARLINK-37908,2026-145M,2026-07-20T22:38:28.693824,15.75043282,.00047483,97.2865,49.0964,347.4296,12.6850,0,U,69688,999,408,.17997342E-2,.275499E-2,0
STARLINK-37979,2026-145N,2026-07-19T00:53:31.139808,15.74987322,.0004064,97.2836,47.0963,329.7447,30.3583,0,U,69689,999,378,.12423645E-2,.187711E-2,0
STARLINK-37940,2026-145P,2026-07-20T02:47:01.017600,15.75190687,.00012857,97.2839,48.2309,73.7239,286.4167,0,U,69690,999,395,.86207668E-3,.13044E-2,0
STARLINK-37961,2026-145Q,2026-07-19T12:59:07.960704,15.75103371,.00012296,97.2842,47.6340,131.0284,229.1087,0,U,69691,999,386,.42417508E-3,.63371E-3,0
STARLINK-37787,2026-145R,2026-07-20T01:07:54.826176,15.75274543,.00009101,97.2844,48.1728,49.9942,310.1403,0,U,69692,999,394,.12084237E-2,.18474E-2,0
STARLINK-37962,2026-145S,2026-07-20T20:54:41.438016,15.74749873,.000074,97.2849,49.0408,70.3679,289.7666,0,U,69693,999,407,-.18675313E-2,-.2651E-2,0
STARLINK-37953,2026-145T,2026-07-19T02:17:15.153792,15.75176117,.00028922,97.2820,47.1697,77.2614,282.8974,0,U,69694,999,379,.78738845E-3,.118908E-2,0
STARLINK-37926,2026-145U,2026-07-20T22:00:01.999584,15.65945940,.00022355,97.2847,49.0745,92.4671,126.8341,0,U,69695,999,534,-.26445347E-1,-.2366889E-1,0
STARLINK-37959,2026-145V,2026-07-20T20:56:15.670176,15.74951221,.00060055,97.2852,49.0378,241.9421,118.1237,0,U,69696,999,407,.14392686E-2,.218021E-2,0
STARLINK-37976,2026-145W,2026-07-20T20:52:56.878464,15.72620614,.00008416,97.2850,49.0422,104.5503,255.5854,0,U,69697,999,407,-.50358823E-2,-.625529E-2,0
STARLINK-37912,2026-145X,2026-07-20T20:50:32.663040,15.75198857,.00013652,97.2847,49.0443,90.5893,269.5529,0,U,69698,999,407,.15255932E-2,.233854E-2,0
STARLINK-37974,2026-145Y,2026-07-20T02:31:46.952256,15.75193191,.00031968,97.2826,48.2458,71.4063,288.7550,0,U,69699,999,395,.32060592E-3,.47977E-3,0
STARLINK-37955,2026-145Z,2026-07-20T22:00:01.999584,15.69483414,.00017578,97.2848,49.0973,110.0570,170.7914,0,U,69700,999,534,-.23197494E-1,-.2344412E-1,0
STRIX-8,2026-146A,2026-07-20T17:30:02.238048,15.04462447,.0006489,41.9905,342.4366,63.3029,296.8462,0,U,69701,999,361,.19990768E-3,.2654E-4,0
ELECTRON R/B,2026-146B,2026-07-20T13:11:48.952896,15.79842259,.0153345,42.0727,329.5526,58.1806,303.3879,0,U,69702,999,375,.10342E-2,.472511E-2,.81899E-4
ELECTRON KICK STAGE R/B,2026-146C,2026-07-20T17:18:14.571072,15.04968281,.00083031,41.9889,342.3703,63.4984,296.6694,0,U,69703,999,361,.17854869E-3,.2384E-4,0
STARLINK-38055,2026-147A,2026-07-20T22:00:01.999584,15.76019182,.00015418,97.2837,238.6316,81.3666,197.9524,0,U,69704,999,466,-.7184412E-2,-.99013E-2,0
STARLINK-37898,2026-147B,2026-07-20T22:00:01.999584,15.71601080,.00017058,97.2843,238.6245,85.4285,177.4442,0,U,69705,999,466,-.2192034E-1,-.2410247E-1,0
STARLINK-37970,2026-147C,2026-07-20T22:00:01.999584,15.70910331,.00015946,97.2839,238.6250,74.9388,187.4540,0,U,69706,999,466,-.22024089E-1,-.2360207E-1,0
STARLINK-37975,2026-147D,2026-07-20T22:00:01.999584,15.76591249,.00017448,97.2838,238.6379,94.8121,198.3023,0,U,69707,999,466,-.1804986E-1,-.2457421E-1,0
STARLINK-37972,2026-147E,2026-07-20T20:43:05.533536,15.80871204,.00011108,97.2825,238.5848,102.8230,257.3162,0,U,69708,999,475,.10030165E-2,.196875E-2,0
STARLINK-37963,2026-147F,2026-07-20T22:00:01.999584,15.72180200,.00012808,97.2841,238.6348,81.9691,203.2677,0,U,69709,999,466,-.85877629E-2,-.1017674E-1,0
STARLINK-37969,2026-147G,2026-07-20T14:41:55.552992,15.73422979,.00060607,97.2842,238.3145,288.9235,71.1372,0,U,69710,999,471,.13097544E-2,.18511E-2,0
