STARLINK-37992          
1 69681U 26145E   26201.91668981 -.02125310  00000+0 -19871-1 0  9999
2 69681  97.2843  49.0355 0001665  81.6835  56.0216 15.70471877  5349
STARLINK-37997          
1 69682U 26145F   26201.82693167 -.00258301  00000+0 -18392-2 0  9997
2 69682  97.2850  48.9465 0004770 135.6809 224.4839 15.74458524  5316
STARLINK-37990          
1 69683U 26145G   26201.91668981 -.02395739  00000+0 -24927-1 0  9993
2 69683  97.2843  49.0347 0001636  77.9389  52.3235 15.67747228  5344
STARLINK-37951          
1 69684U 26145H   26201.88960396  .00219924  00000+0  14389-2 0  9994
2 69684  97.2854  49.0140 0001467  92.5334 267.6099 15.75171169  4075
STARLINK-37957          
1 69685U 26145J   26201.31685404  .00019535  00000+0  13285-3 0  9998
2 69685  97.2851  48.4157 0003617  45.0296 315.1262 15.74953398  3984
STARLINK-37968          
1 69686U 26145K   26201.91668981 -.02340883  00000+0 -29982-1 0  9992
2 69686  97.2849  49.0411 0001695  84.9542  55.9053 15.62477030  5342
STARLINK-37977          
1 69687U 26145L   26200.54776317  .00097126  00000+0  64425-3 0  9992
2 69687  97.2836  47.6256 0001244  87.1386 273.0021 15.75204737  3860
STARLINK-37908          
1 69688U 26145M   26201.94338766  .00275499  00000+0  17997-2 0  9992
2 69688  97.2865  49.0964 0004748 347.4296  12.6850 15.75043282  4087
STARLINK-37979          
1 69689U 26145N   26200.03716597  .00187711  00000+0  12424-2 0  9993
2 69689  97.2836  47.0963 0004064 329.7447  30.3583 15.74987322  3782
STARLINK-37940          
1 69690U 26145P   26201.11598400  .00130440  00000+0  86208-3 0  9995
2 69690  97.2839  48.2309 0001285  73.7239 286.4167 15.75190687  3953
STARLINK-37961          
1 69691U 26145Q   26200.54106436  .00063371  00000+0  42418-3 0  9999
2 69691  97.2842  47.6340 0001229 131.0284 229.1087 15.75103371  3861
STARLINK-37787          
1 69692U 26145R   26201.04716234  .00184740  00000+0  12084-2 0  9998
2 69692  97.2844  48.1728 0000910  49.9942 310.1403 15.75274543  3946
STARLINK-37962          
1 69693U 26145S   26201.87131294 -.00265100  00000+0 -18675-2 0  9991
2 69693  97.2849  49.0408 0000740  70.3679 289.7666 15.74749873  4072
STARLINK-37953          
1 69694U 26145T   26200.09531428  .00118908  00000+0  78739-3 0  9997
2 69694  97.2820  47.1697 0002892  77.2614 282.8974 15.75176117  3796
STARLINK-37926          
1 69695U 26145U   26201.91668981 -.02366889  00000+0 -26445-1 0  9997
2 69695  97.2847  49.0745 0002235  92.4671 126.8341 15.65945940  5349
STARLINK-37959          
1 69696U 26145V   26201.87240359  .00218021  00000+0  14393-2 0  9998
2 69696  97.2852  49.0378 0006005 241.9421 118.1237 15.74951221  4077
STARLINK-37976          
1 69697U 26145W   26201.87010276 -.00625529  00000+0 -50359-2 0  9991
2 69697  97.2850  49.0422 0000841 104.5503 255.5854 15.72620614  4071
STARLINK-37912          
1 69698U 26145X   26201.86843360  .00233854  00000+0  15256-2 0  9990
2 69698  97.2847  49.0443 0001365  90.5893 269.5529 15.75198857  4075
STARLINK-37974          
1 69699U 26145Y   26201.10540454  .00047977  00000+0  32061-3 0  9999
2 69699  97.2826  48.2458 0003196  71.4063 288.7550 15.75193191  3950
STARLINK-37955          
1 69700U 26145Z   26201.91668981 -.02344412  00000+0 -23197-1 0  9993
2 69700  97.2848  49.0973 0001757 110.0570 170.7914 15.69483414  5344
STRIX-8                 
1 69701U 26146A   26201.72919257  .00002654  00000+0  19991-3 0  9993
2 69701  41.9905 342.4366 0006489  63.3029 296.8462 15.04462447  3615
ELECTRON R/B            
1 69702U 26146B   26201.54987214  .00472511  81899-4  10342-2 0  9995
2 69702  42.0727 329.5526 0153345  58.1806 303.3879 15.79842259  3759
ELECTRON KICK STAGE R/B 
1 69703U 26146C   26201.72100198  .00002384  00000+0  17855-3 0  9998
2 69703  41.9889 342.3703 0008303  63.4984 296.6694 15.04968281  3612
STARLINK-38055          
1 69704U 26147A   26201.91668981 -.00990130  00000+0 -71844-2 0  9994
2 69704  97.2837 238.6316 0001541  81.3666 197.9524 15.76019182  4667
STARLINK-37898          
1 69705U 26147B   26201.91668981 -.02410247  00000+0 -21920-1 0  9992
2 69705  97.2843 238.6245 0001705  85.4285 177.4442 15.71601080  4661
STARLINK-37970          
1 69706U 26147C   26201.91668981 -.02360207  00000+0 -22024-1 0  9999
2 69706  97.2839 238.6250 0001594  74.9388 187.4540 15.70910331  4667
STARLINK-37975          
1 69707U 26147D   26201.91668981 -.02457421  00000+0 -18050-1 0  9999
2 69707  97.2838 238.6379 0001744  94.8121 198.3023 15.76591249  4668
STARLINK-37972          
1 69708U 26147E   26201.86325849  .00196875  00000+0  10030-2 0  9997
2 69708  97.2825 238.5848 0001110 102.8230 257.3162 15.80871204  4750
STARLINK-37963          
1 69709U 26147F   26201.91668981 -.01017674  00000+0 -85878-2 0  9995
2 69709  97.2841 238.6348 0001280  81.9691 203.2677 15.72180200  4662
STARLINK-37969          
1 69710U 26147G   26201.61244853  .00185110  00000+0  13098-2 0  9995
2 69710  97.2842 238.3145 0006060 288.9235  71.1372 15.73422979  4714
